1 29155U 06018A   12279.28720897 -.00000258  00000-0  10000-3 0  2477
2 29155 000.1130 117.8097 0002974 030.7755 254.2630 01.00264693 23357